    {
        "name": 'RESOURCESAT-2A',
        "norad_catalog_id": '41877',
        "tle_line1": '1 41877U 16074A   26103.95238968  .00000077  00000+0  55447-4 0  9999',
        "tle_line2": '2 41877  98.7551 177.9741 0001024 258.0643 102.0420 14.21614797485171',
        "epoch_iso": '2026-04-13T22:51:26.468352Z',
        "inclination_deg": '98.755100',
        "eccentricity": '0.00010240',
        "mean_motion_rev_per_day": '14.21614797',
        "altitude_m": '819896.847',
    },
    {
        "name": 'CARTOSAT-2D',
        "norad_catalog_id": '41948',
        "tle_line1": '1 41948U 17008A   26103.94198096  .00000113  00000+0  85127-5 0  9992',
        "tle_line2": '2 41948  97.4171 164.4260 0005923 105.9022 254.2866 15.19300781507828',
        "epoch_iso": '2026-04-13T22:36:27.154944Z',
        "inclination_deg": '97.417100',
        "eccentricity": '0.00059230',
        "mean_motion_rev_per_day": '15.19300781',
        "altitude_m": '507952.567',
    },
    {
        "name": 'SENTINEL-2B',
        "norad_catalog_id": '42063',
        "tle_line1": '1 42063U 17013A   26103.94175150 -.00000047  00000+0 -13025-5 0  9999',
        "tle_line2": '2 42063  98.5661 179.6296 0001235  93.6242 266.5083 14.30820285475457',
        "epoch_iso": '2026-04-13T22:36:07.329600Z',
        "inclination_deg": '98.566100',
        "eccentricity": '0.00012350',
        "mean_motion_rev_per_day": '14.30820285',
        "altitude_m": '788990.255',
    },
    {
        "name": 'CARTOSAT-2E',
        "norad_catalog_id": '42767',
        "tle_line1": '1 42767U 17036C   26104.09092135 -.00000035  00000+0  15208-5 0  9994',
        "tle_line2": '2 42767  97.4333 164.9288 0003685 154.9538 205.1876 15.19227050488418',
        "epoch_iso": '2026-04-14T02:10:55.604640Z',
        "inclination_deg": '97.433300',
        "eccentricity": '0.00036850',
        "mean_motion_rev_per_day": '15.19227050',
        "altitude_m": '508175.362',
    },
    {
        "name": 'FORMOSAT-5',
        "norad_catalog_id": '42920',
        "tle_line1": '1 42920U 17049A   26103.91633783  .00000087  00000+0  33229-4 0  9997',
        "tle_line2": '2 42920  98.2267 180.6497 0010359 285.1522  74.8527 14.50714116457358',
        "epoch_iso": '2026-04-13T21:59:31.588512Z',
        "inclination_deg": '98.226700',
        "eccentricity": '0.00103590',
        "mean_motion_rev_per_day": '14.50714116',
        "altitude_m": '723317.084',
    },
    {
        "name": 'SENTINEL-5P',
        "norad_catalog_id": '42969',
        "tle_line1": '1 42969U 17064A   26103.56595823  .00000022  00000+0  31511-4 0  9991',
        "tle_line2": '2 42969  98.7925  46.1617 0001260  85.7968 274.3352 14.19507796440394',
        "epoch_iso": '2026-04-13T13:34:58.791072Z',
        "inclination_deg": '98.792500',
        "eccentricity": '0.00012600',
        "mean_motion_rev_per_day": '14.19507796',
        "altitude_m": '827017.867',
    },
    {
        "name": 'SKYSAT-C11',
        "norad_catalog_id": '42987',
        "tle_line1": '1 42987U 17068A   26103.82040508  .00017465  00000+0  26519-3 0  9999',
        "tle_line2": '2 42987  97.4260 250.0481 0001009 156.9346 203.1954 15.54652065473236',
        "epoch_iso": '2026-04-13T19:41:22.998912Z',
        "inclination_deg": '97.426000',
        "eccentricity": '0.00010090',
        "mean_motion_rev_per_day": '15.54652065',
        "altitude_m": '403164.222',
    },
    {
        "name": 'SKYSAT-C10',
        "norad_catalog_id": '42988',
        "tle_line1": '1 42988U 17068B   26103.65081329  .00006062  00000+0  18960-3 0  9999',
        "tle_line2": '2 42988  97.4398 239.9634 0001252 115.0478 245.0894 15.33517382472468',
        "epoch_iso": '2026-04-13T15:37:10.268256Z',
        "inclination_deg": '97.439800',
        "eccentricity": '0.00012520',
        "mean_motion_rev_per_day": '15.33517382',
        "altitude_m": '465327.825',
    },
    {
        "name": 'SKYSAT-C9',
        "norad_catalog_id": '42989',
        "tle_line1": '1 42989U 17068C   26103.81296056  .00007597  00000+0  19226-3 0  9993',
        "tle_line2": '2 42989  97.4319 240.4688 0008644  17.4494 342.7047 15.40013271472846',
        "epoch_iso": '2026-04-13T19:30:39.792384Z',
        "inclination_deg": '97.431900',
        "eccentricity": '0.00086440',
        "mean_motion_rev_per_day": '15.40013271',
        "altitude_m": '446070.113',
    },
    {
        "name": 'SKYSAT-C8',
        "norad_catalog_id": '42990',
        "tle_line1": '1 42990U 17068D   26103.91240376  .00006825  00000+0  19892-3 0  9992',
        "tle_line2": '2 42990  97.4416 239.7892 0001051 102.5411 257.5950 15.35706680472443',
        "epoch_iso": '2026-04-13T21:53:51.684864Z',
        "inclination_deg": '97.441600',
        "eccentricity": '0.00010510',
        "mean_motion_rev_per_day": '15.35706680',
        "altitude_m": '458822.266',
    },
    {
        "name": 'SKYSAT-C7',
        "norad_catalog_id": '42991',
        "tle_line1": '1 42991U 17068E   26103.83844932  .00006341  00000+0  18525-3 0  9997',
        "tle_line2": '2 42991  97.4427 240.6998 0005447 348.9947  11.1177 15.35651042472498',
        "epoch_iso": '2026-04-13T20:07:22.021248Z',
        "inclination_deg": '97.442700',
        "eccentricity": '0.00054470',
        "mean_motion_rev_per_day": '15.35651042',
        "altitude_m": '458987.404',
    },
    {
        "name": 'SKYSAT-C6',
        "norad_catalog_id": '42992',
        "tle_line1": '1 42992U 17068F   26103.82153904  .00005650  00000+0  17787-3 0  9990',
        "tle_line2": '2 42992  97.4461 240.8621 0002855  39.7151 320.4300 15.33336311472451',
        "epoch_iso": '2026-04-13T19:43:00.973056Z',
        "inclination_deg": '97.446100',
        "eccentricity": '0.00028550',
        "mean_motion_rev_per_day": '15.33336311',
        "altitude_m": '465866.576',
    },
    {
        "name": 'CARTOSAT-2F',
        "norad_catalog_id": '43111',
        "tle_line1": '1 43111U 18004A   26104.12260037  .00002784  00000+0  13508-3 0  9997',
        "tle_line2": '2 43111  97.4095 164.6288 0002452 119.7879 240.3599 15.19306551457606',
        "epoch_iso": '2026-04-14T02:56:32.671968Z',
        "inclination_deg": '97.409500',
        "eccentricity": '0.00024520',
        "mean_motion_rev_per_day": '15.19306551',
        "altitude_m": '507935.133',
    },
    {
        "name": 'GAOFEN-1 02',
        "norad_catalog_id": '43259',
        "tle_line1": '1 43259U 18031A   26104.11950488  .00000002  00000+0  76800-5 0  9992',
        "tle_line2": '2 43259  98.0579 166.8090 0002685 187.3457 172.7713 14.76430187433244',
        "epoch_iso": '2026-04-14T02:52:05.221632Z',
        "inclination_deg": '98.057900',
        "eccentricity": '0.00026850',
        "mean_motion_rev_per_day": '14.76430187',
        "altitude_m": '640614.998',
    },
    {
        "name": 'GAOFEN-1 03',
        "norad_catalog_id": '43260',
        "tle_line1": '1 43260U 18031B   26104.16530807  .00000436  00000+0  70146-4 0  9995',
        "tle_line2": '2 43260  98.0571 166.7195 0001054 283.4938  76.6154 14.76417197433241',
        "epoch_iso": '2026-04-14T03:58:02.617248Z',
        "inclination_deg": '98.057100',
        "eccentricity": '0.00010540',
        "mean_motion_rev_per_day": '14.76417197',
        "altitude_m": '640656.166',
    },
    {
        "name": 'GAOFEN-1 04',
        "norad_catalog_id": '43262',
        "tle_line1": '1 43262U 18031D   26103.93793093  .00000573  00000+0  89849-4 0  9991',
        "tle_line2": '2 43262  98.0583 166.6754 0000885  62.3940 297.7360 14.76451671433200',
        "epoch_iso": '2026-04-13T22:30:37.232352Z',
        "inclination_deg": '98.058300',
        "eccentricity": '0.00008850',
        "mean_motion_rev_per_day": '14.76451671',
        "altitude_m": '640546.910',
    },
    {
        "name": 'SENTINEL-3B',
        "norad_catalog_id": '43437',
        "tle_line1": '1 43437U 18039A   26103.95070072  .00000062  00000+0  43502-4 0  9999',
        "tle_line2": '2 43437  98.6285 172.3928 0001646 104.1806 255.9558 14.26738940414967',
        "epoch_iso": '2026-04-13T22:49:00.542208Z',
        "inclination_deg": '98.628500',
        "eccentricity": '0.00016460',
        "mean_motion_rev_per_day": '14.26738940',
        "altitude_m": '802651.988',
    },
    {
        "name": 'GAOFEN-5 01',
        "norad_catalog_id": '43461',
        "tle_line1": '1 43461U 18043A   26103.66585510  .00000219  00000+0  55151-4 0  9994',
        "tle_line2": '2 43461  98.4522  73.9187 0000584 306.9072  53.2074 14.60559953422274',
        "epoch_iso": '2026-04-13T15:58:49.880640Z',
        "inclination_deg": '98.452200',
        "eccentricity": '0.00005840',
        "mean_motion_rev_per_day": '14.60559953',
        "altitude_m": '691366.529',
    },
    {
        "name": 'GAOFEN-6',
        "norad_catalog_id": '43484',
        "tle_line1": '1 43484U 18048A   26103.96554721  .00000418  00000+0  66848-4 0  9993',
        "tle_line2": '2 43484  97.7811 168.9881 0012819  29.3816 330.8113 14.76556691423917',
        "epoch_iso": '2026-04-13T23:10:23.278944Z',
        "inclination_deg": '97.781100',
        "eccentricity": '0.00128190',
        "mean_motion_rev_per_day": '14.76556691',
        "altitude_m": '640214.104',
    },
    {
        "name": 'GAOFEN-11 01',
        "norad_catalog_id": '43585',
        "tle_line1": '1 43585U 18063A   26103.92333883  .00008948  00000+0  14263-3 0  9991',
        "tle_line2": '2 43585  97.1348 171.0569 0003692 184.0020 176.1205 15.53461239430360',
        "epoch_iso": '2026-04-13T22:09:36.474912Z',
        "inclination_deg": '97.134800',
        "eccentricity": '0.00036920',
        "mean_motion_rev_per_day": '15.53461239',
        "altitude_m": '406629.309',
    },
    {
        "name": 'ICESAT-2',
        "norad_catalog_id": '43613',
        "tle_line1": '1 43613U 18070A   26103.92011182  .00001906  00000+0  69112-4 0  9997',
        "tle_line2": '2 43613  92.0004 273.6491 0003448  64.9280 295.2327 15.28254322422646',
